#dP2019  4 17  0  0  0.00000000      96 __u+U ITR00 FIT  IAC
## 2049 259200.00000000   900.00000000 58590 0.0000000000000
+   92   C02C03C05C06C07C08C09C10C11C12C13C14C16E01E02E03E04
+        E05E07E08E09E11E12E13E14E15E18E19E21E24E25E26E27E30
+        E31E33E36G01G02G03G04G05G06G07G08G09G10G11G12G13G14
+        G15G16G17G18G19G20G21G22G23G24G25G26G27G28G29G30G31
+        G32R01R02R03R04R05R07R08R09R10R11R13R14R15R16R17R18
+        R19R20R21R22R23R24R26  0  0  0  0  0  0  0  0  0  0
++        12 13 12  9  8  9  8  8  8  8  8  8  8  6  5  5  5
++         5  5  6  5  6  5  5  6  5  5  6  5  6  5  5  5  5
++         0  6  5  4  3  3  4  4  3  4  4  4  4  4  3  4  4
++         3  4  4  4  3  4  4  4  4  4  3  4  4  4  4  4  4
++         4  5  5  5  6  5  6  5  6  5  5  5  6  5  6  5  5
++         6  6  5  6  5  6 10  0  0  0  0  0  0  0  0  0  0
%c M  cc GPS ccc cccc cccc cccc cccc ccccc ccccc ccccc ccccc
%c cc cc ccc ccc cccc cccc cccc cccc ccccc ccccc ccccc ccccc
%f  0.0000000  0.000000000  0.00000000000  0.000000000000000
%f  0.0000000  0.000000000  0.00000000000  0.000000000000000
%i    0    0    0    0      0      0      0      0         0
%i    0    0    0    0      0      0      0      0         0
/*                                                          
/*   RSA / INFORMATION & ANALYSIS CENTER (IAC) OF MCC       
/*   ULTRA-RAPID DETERMINATION                              
/* PCV:IGS14_2038 OL/AL:FES2004  NONE     YN ORB:CoN CLK:CoN
*  2019 04 17 12 30  0.00000000
PC02   4395.579968  41951.196896    692.816085    215.026240
PC03 -14839.112222  39472.279573    551.282992    146.669228
PC05  21876.434215  36034.780275    550.329896   -249.054542
PC06 -25399.940057  27644.298869 -19220.117215    694.514926
PC07 -12482.609727  36841.854977 -15540.419707   -305.169596
PC08  -9827.698088  19756.370199  36027.271170    146.716845
PC09  -9893.152100  27690.780512 -30139.401889    692.986656
PC10  -2422.724176  41768.200004  -2968.694489   -671.583734
PC11  26065.859847  -5803.686394  -8139.149663   -106.065136
PC12  19315.642245  10781.721549  17121.600995    585.978441
PC13   5274.419720  27897.140421  31310.365628   -658.235729
PC14  18333.229156  -3653.652959 -20637.364324    674.598118
PC16 -20297.510375  28546.775911 -23556.817308   -570.436529
PE01  -6426.672337  24390.677614 -15496.436664   -585.624592
PE02   6388.653872 -24418.681445  15447.651560     56.313049
PE03  17476.482039 -22225.291814   8791.167768   -156.206690
PE04    540.162503  19729.915100 -22050.638759   -263.244872
PE05  25386.239928 -11701.470118  -9731.726522     72.594409
PE07 -18412.535437  -5629.494203  22491.720179   -170.411982
PE08   -711.989366 -19590.097867  22190.119954   6370.826011
PE09  18400.485222   5327.118114 -22559.574498   6466.805254
PE11  26519.535064  12535.569416   3867.078819   5706.071702
PE12  11222.136536  18485.346313  20208.059748   6440.249258
PE13 -26542.715554 -12480.171632  -4027.776611    385.746929
PE14 -25115.233861  -7302.797085 -16671.936660   -532.614514
PE15 -11728.251147 -18357.250883 -20034.504181    913.520835
PE18  25683.141791  -3805.045310   3261.196965   -631.527906
PE19 -18829.546981  21732.636162  -7023.744447     -7.015207
PE21 -15555.504150   5442.101958 -24596.005949   -529.512962
PE24  15480.954139  16294.491338  19254.357137   6127.983063
PE25  15563.792502  -5383.477133  24594.416017   1831.900220
PE26 -25907.187263    590.434205  14316.862044   4672.226359
PE27 -15446.195308 -16575.315779 -19050.072273    488.158301
PE30  -6334.293628 -28785.330051  -2688.322072   4944.130269
PE31   6277.400852  28830.431123   2340.246786    854.941292
PE33 -10021.740069  13502.693592  24371.534388   -470.607869
PE36  25851.509687   -720.344057 -14379.762272    723.152698
PG01 -22112.363502 -13269.363316   6849.400271   -203.752350
PG02  10585.713072  20510.289000  13889.148812   -191.223785
PG03 -13390.017329  -8601.714098  21240.130285    188.259836
PG04 -23783.139104  10830.602926  -4741.900391    150.151047
PG05   3554.481024  24081.690794 -10492.265657      1.112536
PG06  -1728.190514  16874.346571  20473.945824    228.547784
PG07 -20120.684394  -1687.029752 -17237.359601     -6.574682
PG08 -15853.859460  -8534.107399 -19558.765431   -140.244689
PG09 -25297.111810   7971.192519   1480.315349    427.289375
PG10  11272.072645 -21733.160353  -9988.002979     70.559990
PG11 -24330.545747  -9818.232543  -3704.416972   -624.774440
PG12  11967.449888  10120.312424  21259.404550    250.484033
PG13   6948.265801  13795.696830 -21723.453029    -67.435659
PG14   9453.261562 -16187.976391  19059.555230    -84.141111
PG15  18166.347883   6983.856305 -18495.489530   -317.916680
PG16  -1766.934799 -23381.627642 -12218.869059    -33.320552
PG17 -17889.435079  14481.199769  13583.437510     40.430196
PG18 -19436.253218 -18034.387922  -3011.675198     45.008156
PG19 -11079.203061  15258.019182  18443.816811   -329.640463
PG20  14135.474262 -14138.344751 -17519.598713    524.036759
PG21  17058.604000  -4143.552546 -19091.621269   -210.625344
PG22 -11555.742852 -16162.778510  17897.173397   -685.266944
PG23 -23742.676882  -1053.775755  12592.708641   -189.860217
PG24  22135.720836  14687.206655   2894.860872    -64.899735
PG25  15434.270979  -3839.870658  21016.211384   -746.597395
PG26   3542.450446 -26194.778815  -1256.563691    178.284915
PG27  -4337.112908 -14224.261618 -22101.775617   -110.501294
PG28 -12903.875093  20768.096434  -9879.659546    767.498904
PG29  25682.227276  -2788.968317   6150.824693    223.338508
PG30 -12621.120816   9468.949247 -21358.509930    -88.136658
PG31   1267.297303 -17593.480335  19717.410168     44.439730
PG32  14858.041911 -16274.397296  14795.650055   -128.516257
PR01  11563.380829 -21241.957115   8140.553661     42.463396
PR02  -3516.135721 -12285.733212  22109.770670    364.141411
PR03 -15070.549727   3220.729118  20384.140502     -6.171987
PR04 -17725.550994  17221.021486   6370.521967    302.804016
PR05 -10464.611787  20822.920709 -10379.960414     26.330930
PR07  15241.342481  -3657.115262 -20073.426391    -18.426201
PR08  17832.350100 -16826.421215  -6970.338630     18.184766
PR09  11879.478118  21400.267774   7073.404121     64.927895
PR10  13237.085158   9628.206077  19508.661679     47.851472
PR11   7757.430959  -9742.853104  22276.055420    -63.242800
PR13 -11562.607533 -22079.915584  -5457.442715    -22.551058
PR14 -13538.870093  -9408.492703 -19462.091549     38.020274
PR15  -8043.106984   8777.404708 -22544.856179    101.392596
PR16   2443.423891  22133.227862 -12579.019691     10.159844
PR17 -24922.638335  -4950.317640  -2055.729401    220.991910
PR18 -20921.254029   3185.178733  14306.478769    -10.040987
PR19  -5756.422482   9431.163898  22993.491585    -25.957805
PR20  14568.833761  10846.848808  17892.583173   -375.231533
PR21  25040.988266   4691.078639   1448.332988    -42.916414
PR22  19011.355421  -4323.667510 -16363.586311    -14.871835
PR23    -97.300386 -10616.110210 -23199.311960    222.301347
PR24 -16294.280058 -10328.901001 -16722.994996   -179.436661
PR26  12501.152075  10905.827604  19396.486468    -12.068322
EOF
